[{"OBJECT_NAME":"EOSSAT-1","OBJECT_ID":"2023-001AW","EPOCH":"2026-03-09T17:40:07.010400","MEAN_MOTION":15.32339828,"ECCENTRICITY":0.00112629,"INCLINATION":97.3357,"RA_OF_ASC_NODE":130.2294,"ARG_OF_PERICENTER":110.3168,"MEAN_ANOMALY":249.9285,"EPHEMERIS_TYPE":0,"CLASSIFICATION_TYPE":"U","NORAD_CAT_ID":55053,"ELEMENT_SET_NO":999,"REV_AT_EPOCH":17668,"BSTAR":0.00024844399,"MEAN_MOTION_DOT":7.695e-5,"MEAN_MOTION_DDOT":0},{"OBJECT_NAME":"STARLINK-32031","OBJECT_ID":"2024-120H","EPOCH":"2026-03-09T22:48:09.172224","MEAN_MOTION":15.30163001,"ECCENTRICITY":0.00014009,"INCLINATION":53.1613,"RA_OF_ASC_NODE":318.8869,"ARG_OF_PERICENTER":77.2774,"MEAN_ANOMALY":282.8383,"EPHEMERIS_TYPE":0,"CLASSIFICATION_TYPE":"U","NORAD_CAT_ID":60142,"ELEMENT_SET_NO":999,"REV_AT_EPOCH":9649,"BSTAR":-6.2757112e-5,"MEAN_MOTION_DOT":-2.215e-5,"MEAN_MOTION_DDOT":0}]
